CZ-4B R/B               
1 28059U 03049C   16128.55338451  .00000059  00000-0  26231-4 0  9994
2 28059  98.6180 359.0698 0051086  44.5877  13.7456 14.52439801664798
CZ-2C R/B               
1 28222U 04012C   16127.91939046  .00001588  00000-0  10320-3 0  9992
2 28222  97.4707  87.8155 0050449 137.4529 287.4332 15.08399546659356
SL-16 R/B               
1 28353U 04021B   16127.50370593 -.00000137  00000-0 -47062-4 0  9993
2 28353  71.0006 211.3303 0002942 105.3576 254.7871 14.14169464614661
CZ-2C R/B               
1 28480U 04046B   16127.37210697  .00000030  00000-0  27215-4 0  9992
2 28480  98.1768 244.0485 0141723 345.7226  49.4063 14.25587845596271
ARIANE 5 R/B            
1 28499U 04049H   16127.24678103  .00000231  00000-0  35867-4 0  9996
2 28499  98.1117 201.1024 0094049  89.0226 307.6151 14.79683567613812
CZ-2D R/B               
1 28738U 05024B   16128.54115280  .00001136  00000-0  72842-4 0  9991
2 28738  97.5460 166.2332 0011358 325.7613  34.2883 15.10481270594565
SUZAKU (ASTRO-EII)      
1 28773U 05025A   16127.88413786  .00001950  00000-0  98232-4 0  9994
2 28773  31.3838  49.0262 0005082 235.0547 124.9623 15.14681274595677
ALOS (DAICHI)           
1 28931U 06002A   16127.88320189  .00000319  00000-0  72151-4 0  9990
2 28931  97.8884 168.5380 0002231 115.8825 244.2609 14.62178240548085
H-2A R/B                
1 28932U 06002B   16127.70191593  .00000583  00000-0  61339-4 0  9996
2 28932  98.2186  28.2899 0090316 202.1430 211.0312 14.90846969557237
AKARI (ASTRO-F)         
1 28939U 06005A   16127.45869164  .00008768  00000-0  29091-3 0  9995
2 28939  98.2352 279.8455 0116233 153.1741 207.5571 15.25166970551044
RESURS-DK 1             
1 29228U 06021A   16128.54324404  .00000637  00000-0  56072-4 0  9996
2 29228  69.9371  49.9263 0007901 248.6276 111.4046 15.01888386547196
GENESIS 1               
1 29252U 06029A   16127.52780096  .00001090  00000-0  66405-4 0  9996
2 29252  64.5045 172.8464 0034235 232.4078 233.4931 15.15932217540179
CZ-4B R/B               
1 29507U 06046C   16127.52690390  .00000352  00000-0  33110-4 0  9992
2 29507  97.7828 128.8225 0039933 195.2253 164.7771 14.99680591520088
CZ-2C R/B               
1 31114U 07010B   16128.39396085  .00000031  00000-0  34052-4 0  9991
2 31114  98.4152  45.4521 0058950 314.2042  45.4300 14.19202281469954
COSMO-SKYMED 1          
1 31598U 07023A   16128.57161716  .00000133  00000-0  23220-4 0  9990
2 31598  97.8760 312.6233 0001463  85.1375 274.9995 14.82161472482362
GENESIS 2               
1 31789U 07028A   16127.22324517  .00001191  00000-0  71864-4 0  9990
2 31789  64.5057 210.3671 0053562 272.1543  87.3446 15.15181680487223
COSMOS 2428             
1 31792U 07029A   16128.38734990  .00000137  00000-0  10000-3 0  9996
2 31792  70.9459 183.8085 0006937 179.8927 309.0479 14.12391070456778
SL-16 R/B               
1 31793U 07029B   16127.50080532  .00000160  00000-0  10840-3 0  9994
2 31793  70.9750 163.3962 0002090 280.7681 179.7117 14.14363584457217
KORONAS-FOTON           
1 33504U 09003A   16127.45792451  .00000781  00000-0  40780-4 0  9990
2 33504  82.4414 276.9710 0021186  76.4056 283.9533 15.14260234399910
TIANGONG 1              
1 37820U 11053A   16128.48558140  .00018432  00000-0  20905-3 0  9990
2 37820  42.7627 130.6030 0011902 124.5670  11.7667 15.61942003264215
CZ-3B R/B               
1 38253U 12018D   16128.52544750  .00326060  54395-6  10479-2 0  9995
2 38253  54.9614 281.2232 3655457 169.8830 200.2810  8.28671620 87561
H-2A R/B                
1 38341U 12025E   16128.11567842  .00000502  00000-0  67315-4 0  9994
2 38341  98.4840 175.2871 0056667  24.6266 335.7632 14.83293701214678
CZ-2C R/B               
1 39000U 12064D   16128.14359571  .00147624  10351-4  40482-3 0  9997
2 39000  97.2726 170.0871 0004560 132.4790 227.6871 15.94035073195568
CUSAT 2 & FALCON 9 R/B  
1 39271U 13055G   16128.40030299  .00013145  00000-0  35624-3 0  9998
2 39271  80.9731  64.3290 0658663 317.2212  37.9441 14.30827119134460
ASTRO-H (HITOMI)        
1 41337U 16012A   16127.50855387  .00000626  00000-0  44690-4 0  9997
2 41337  31.0054 175.3250 0012677 344.1389  15.8849 14.98037203 11881
